NORAD_CAT_ID,OBJECT_NAME,OBJECT_TYPE,EPOCH,MEAN_MOTION,ECCENTRICITY,INCLINATION,RA_OF_ASC_NODE,ARG_OF_PERICENTER,MEAN_ANOMALY,BSTAR,MEAN_MOTION_DOT,MEAN_MOTION_DDOT,TLE_LINE0,TLE_LINE1,TLE_LINE2,SEMIMAJOR_AXIS,PERIOD,APOGEE,PERIGEE,DECAYED
52303.0,STARLINK-3742,PAYLOAD,2022-05-24 04:00:00,15.73204487,0.00039,53.2173,214.0403,8.4241,35.4869,5.3988e-07,-5.49e-06,0.0,0 STARLINK-3742,1 52303U 22041AU  22144.16667824 -.00000549  00000-0  53988-6 0  9993,2 52303  53.2173 214.0403 0003900   8.4241  35.4869 15.73204487  6340,6727.882,91.533,352.371,347.124,0.0
52303.0,STARLINK-3742,PAYLOAD,2022-05-24 12:57:42,15.73201961,0.0003876,53.2154,212.1921,10.028,350.0817,2.193e-06,-3.17e-06,0.0,0 STARLINK-3742,1 52303U 22041AU  22144.54008072 -.00000317  00000-0  21930-5 0  9993,2 52303  53.2154 212.1921 0003876  10.0280 350.0817 15.73201961  6407,6727.89,91.533,352.362,347.147,0.0
52303.0,STARLINK-3742,PAYLOAD,2022-05-24 14:00:01,15.73163165,0.0004264,53.2151,211.9807,3.4185,241.83900000000003,0.00033631,0.00046785,0.0,0 STARLINK-3742,1 52303U 22041AU  22144.58334491  .00046785  00000-0  33631-3 0  9991,2 52303  53.2151 211.9807 0004264   3.4185 241.8390 15.73163165  6413,6728.0,91.535,352.7340000000001,346.996,0.0
52303.0,STARLINK-3742,PAYLOAD,2022-05-24 22:00:00,15.73208658,0.0004106,53.2153,210.3294,4.7271,329.4486,5.2639e-05,6.775e-05,0.0,0 STARLINK-3742,1 52303U 22041AU  22144.91667824  .00006775  00000-0  52639-4 0  9992,2 52303  53.2153 210.3294 0004106   4.7271 329.4486 15.73208658  1302,6727.87,91.533,352.49800000000016,346.973,0.0
52303.0,STARLINK-3742,PAYLOAD,2022-05-25 12:00:00,15.73205407,0.0004397,53.2152,207.4442,8.606,31.2132,-0.00013326,-0.000193,0.0,0 STARLINK-3742,1 52303U 22041AU  22145.50001157 -.00019300  00000-0 -13326-3 0  9998,2 52303  53.2152 207.4442 0004397   8.6060  31.2132 15.73205407  6551,6727.88,91.533,352.70300000000015,346.787,0.0
52303.0,STARLINK-3742,PAYLOAD,2022-05-25 14:00:01,15.73194672,0.0004431,53.2152,207.0321,8.1584,143.8958,-1.5928e-05,-2.861e-05,0.0,0 STARLINK-3742,1 52303U 22041AU  22145.58334491 -.00002861  00000-0 -15928-4 0  9991,2 52303  53.2152 207.0321 0004431   8.1584 143.8958 15.73194672  1303,6727.91,91.533,352.75699999999995,346.7940000000001,0.0
52303.0,STARLINK-3742,PAYLOAD,2022-05-25 22:00:00,15.73183096,0.0004227,53.2149,205.3808,6.4892,234.5052,0.00035327,0.00049232,0.0,0 STARLINK-3742,1 52303U 22041AU  22145.91667824  .00049232  00000-0  35327-3 0  9992,2 52303  53.2149 205.3808 0004227   6.4892 234.5052 15.73183096  1307,6727.943,91.534,352.652,346.964,0.0
52303.0,STARLINK-3742,PAYLOAD,2022-05-26 06:00:00,15.7324355,0.0004137,53.2151,203.7314,6.0231,323.8893,-0.00040534,-0.00057263,0.0,0 STARLINK-3742,1 52303U 22041AU  22146.25001157 -.00057263  00000-0 -40534-3 0  9992,2 52303  53.2151 203.7314 0004137   6.0231 323.8893 15.73243550  6679,6727.771,91.531,352.4190000000001,346.853,0.0
52303.0,STARLINK-3742,PAYLOAD,2022-05-26 12:13:36,15.73199547,0.0004346,53.2158,202.4471,9.7448,350.3656,-4.9095e-06,-1.315e-05,0.0,0 STARLINK-3742,1 52303U 22041AU  22146.50945174 -.00001315  00000-0 -49095-5 0  9996,2 52303  53.2158 202.4471 0004346   9.7448 350.3656 15.73199547  6711,6727.896,91.533,352.685,346.838,0.0
52303.0,STARLINK-3742,PAYLOAD,2022-05-26 22:00:00,15.73188129,0.0004212,53.2153,200.4323,1.0726,146.7203,-0.00022741,-0.00032418,0.0,0 STARLINK-3742,1 52303U 22041AU  22146.91667824 -.00032418  00000-0 -22741-3 0  9999,2 52303  53.2153 200.4323 0004212   1.0726 146.7203 15.73188129  1305,6727.929,91.534,352.62800000000016,346.96,0.0
52303.0,STARLINK-3742,PAYLOAD,2022-05-27 02:00:01,15.73139349,0.0004157,53.2152,199.6068,2.009,10.2471,0.00054183,0.00075941,0.0,0 STARLINK-3742,1 52303U 22041AU  22147.08334491  .00075941  00000-0  54183-3 0  9990,2 52303  53.2152 199.6068 0004157   2.0090  10.2471 15.73139349  6804,6728.068,91.537,352.73,347.136,0.0
52303.0,STARLINK-3742,PAYLOAD,2022-05-27 14:00:01,15.73157772,0.0004548,53.2148,197.1354,3.1327,322.4334,0.00064515,0.00090781,0.0,0 STARLINK-3742,1 52303U 22041AU  22147.58334491  .00090781  00000-0  64515-3 0  9994,2 52303  53.2148 197.1354 0004548   3.1327 322.4334 15.73157772  6883,6728.016,91.536,352.94,346.821,0.0
52303.0,STARLINK-3742,PAYLOAD,2022-05-27 22:00:01,15.73219723,0.0004274,53.2146,195.4838,2.6559,51.9043,0.00022454,0.00031046,0.0,0 STARLINK-3742,1 52303U 22041AU  22147.91668981  .00031046  00000-0  22454-3 0  9990,2 52303  53.2146 195.4838 0004274   2.6559  51.9043 15.73219723  1304,6727.839,91.532,352.579,346.82800000000015,0.0
52303.0,STARLINK-3742,PAYLOAD,2022-05-28 03:52:06,15.73221839,0.0004541,53.2155,194.2729,10.4044,349.707,6.376899999999999e-05,8.346e-05,0.0,0 STARLINK-3742,1 52303U 22041AU  22148.16118164  .00008346  00000-0  63769-4 0  9993,2 52303  53.2155 194.2729 0004541  10.4044 349.7070 15.73221839  6970,6727.833000000001,91.532,352.75300000000016,346.64300000000014,0.0
52303.0,STARLINK-3742,PAYLOAD,2022-05-28 14:00:01,15.73246636,0.0004505,53.2145,192.1868,0.9389,231.501,2.5231e-05,2.925e-05,0.0,0 STARLINK-3742,1 52303U 22041AU  22148.58334491  .00002925  00000-0  25231-4 0  9991,2 52303  53.2145 192.1868 0004505   0.9389 231.5010 15.73246636  1302,6727.762,91.53,352.658,346.596,0.0
52303.0,STARLINK-3742,PAYLOAD,2022-05-28 22:00:00,15.7320548,0.0004163,53.2147,190.5349,357.7166,323.7594,0.00026991,0.0003745,0.0,0 STARLINK-3742,1 52303U 22041AU  22148.91667824  .00037450  00000-0  26991-3 0  9991,2 52303  53.2147 190.5349 0004163 357.7166 323.7594 15.73205480  1309,6727.88,91.533,352.545,346.944,0.0
52303.0,STARLINK-3742,PAYLOAD,2022-05-29 04:00:00,15.73246766,0.0004077,53.2149,189.2977,356.8306,301.3299,-0.00046872,-0.00066059,0.0,0 STARLINK-3742,1 52303U 22041AU  22149.16667824 -.00066059  00000-0 -46872-3 0  9998,2 52303  53.2149 189.2977 0004077 356.8306 301.3299 15.73246766  7125,6727.762,91.53,352.37,346.884,0.0
52303.0,STARLINK-3742,PAYLOAD,2022-05-29 14:00:01,15.73172953,0.0004319,53.2142,187.2378,354.3607,144.94899999999996,-0.00035279,-0.00049816,0.0,0 STARLINK-3742,1 52303U 22041AU  22149.58334491 -.00049816  00000-0 -35279-3 0  9996,2 52303  53.2142 187.2378 0004319 354.3607 144.9490 15.73172953  7194,6727.972,91.535,352.74300000000005,346.931,0.0
52303.0,STARLINK-3742,PAYLOAD,2022-05-29 22:00:00,15.73094047,0.0004023,53.2141,185.5862,351.7009,236.5117,0.00060545,0.00084854,0.0,0 STARLINK-3742,1 52303U 22041AU  22149.91667824  .00084854  00000-0  60545-3 0  9995,2 52303  53.2141 185.5862 0004023 351.7009 236.5117 15.73094047  1309,6728.196999999999,91.539,352.769,347.356,0.0
52303.0,STARLINK-3742,PAYLOAD,2022-05-30 06:00:00,15.7313081,0.0004014,53.2141,183.9378,352.2121,324.8293,0.00082814,0.00116922,0.0,0 STARLINK-3742,1 52303U 22041AU  22150.25001157  .00116922  00000-0  82814-3 0  9990,2 52303  53.2141 183.9378 0004014 352.2121 324.8293 15.73130810  7293,6728.092,91.537,352.658,347.25699999999995,0.0
52303.0,STARLINK-3742,PAYLOAD,2022-05-30 10:45:24,15.7317361,0.0004181,53.2143,182.9565,358.0032,2.0971,-5.3932e-05,-8.182e-05,0.0,0 STARLINK-3742,1 52303U 22041AU  22150.44819544 -.00008182  00000-0 -53932-4 0  9998,2 52303  53.2143 182.9565 0004181 358.0032   2.0971 15.73173610  7330,6727.97,91.535,352.648,347.022,0.0
52303.0,STARLINK-3742,PAYLOAD,2022-05-30 14:00:01,15.73254473,0.0004225,53.2138,182.2895,349.9211,55.9962,5.827e-05,7.583e-05,0.0,0 STARLINK-3742,1 52303U 22041AU  22150.58334491  .00007583  00000-0  58270-4 0  9998,2 52303  53.2138 182.2895 0004225 349.9211  55.9962 15.73254473  1305,6727.74,91.53,352.44699999999995,346.76199999999994,0.0
52303.0,STARLINK-3742,PAYLOAD,2022-05-30 22:00:00,15.7322365,0.0003933,53.2142,180.6376,348.9163,146.0105,0.00010685,0.00014418,0.0,0 STARLINK-3742,1 52303U 22041AU  22150.91667824  .00014418  00000-0  10685-3 0  9996,2 52303  53.2142 180.6376 0003933 348.9163 146.0105 15.73223650  7407,6727.828,91.532,352.339,347.047,0.0
52303.0,STARLINK-3742,PAYLOAD,2022-05-31 06:00:02,15.73209129,0.0004043,53.2143,178.9889,353.0952,230.8583,-4.116e-07,-6.83e-06,0.0,0 STARLINK-3742,1 52303U 22041AU  22151.25002315 -.00000683  00000-0 -41160-6 0  9998,2 52303  53.2143 178.9889 0004043 353.0952 230.8583 15.73209129  1303,6727.869000000002,91.533,352.454,347.014,0.0
52303.0,STARLINK-3742,PAYLOAD,2022-05-31 12:40:33,15.7320166,0.0004175,53.2143,177.6113,357.2595,2.8401,3.1173e-05,3.754e-05,0.0,0 STARLINK-3742,1 52303U 22041AU  22151.52816580  .00003754  00000-0  31173-4 0  9996,2 52303  53.2143 177.6113 0004175 357.2595   2.8401 15.73201660  7500,6727.89,91.533,352.564,346.94699999999995,0.0
52303.0,STARLINK-3742,PAYLOAD,2022-05-31 22:00:00,15.73184913,0.0003888,53.2138,175.6886,353.0987,48.6868,0.00057969,0.000815,0.0,0 STARLINK-3742,1 52303U 22041AU  22151.91667824  .00081500  00000-0  57969-3 0  9999,2 52303  53.2138 175.6886 0003888 353.0987  48.6868 15.73184913  7560,6727.938,91.534,352.4190000000001,347.18699999999984,0.0
52303.0,STARLINK-3742,PAYLOAD,2022-06-01 10:01:15,15.73233689,0.0004168,53.2145,173.2103,357.4204,2.6794,7.2992e-05,9.65e-05,0.0,0 STARLINK-3742,1 52303U 22041AU  22152.41754055  .00009650  00000-0  72992-4 0  9998,2 52303  53.2145 173.2103 0004168 357.4204   2.6794 15.73233689  7648,6727.799,91.531,352.468,346.86,0.0
52303.0,STARLINK-3742,PAYLOAD,2022-06-01 20:00:01,15.73172818,0.0003887,53.2144,171.1523,348.9649,207.4802,0.00012726,0.00017259,0.0,0 STARLINK-3742,1 52303U 22041AU  22152.83334491  .00017259  00000-0  12726-3 0  9994,2 52303  53.2144 171.1523 0003887 348.9649 207.4802 15.73172818  7703,6727.973000000001,91.535,352.45300000000015,347.223,0.0
52303.0,STARLINK-3742,PAYLOAD,2022-06-02 18:02:20,15.73210217,0.0004107,53.2149,166.608,356.0138,4.0849,3.4224e-06,-1.44e-06,0.0,0 STARLINK-3742,1 52303U 22041AU  22153.75162460 -.00000144  00000-0  34224-5 0  9996,2 52303  53.2149 166.6080 0004107 356.0138   4.0849 15.73210217  7858,6727.866,91.533,352.494,346.968,0.0
